{
  "type": "FeatureCollection",
  "features": [
    {
      "type": "Feature",
      "properties": {
        "norad_id": 29486,
        "name": "GPS BIIRM-2 (PRN 31)",
        "group": "gps-ops",
        "lat": -54.59878656929117,
        "lon": 64.79097619683922,
        "alt_km": 20419.234291489276,
        "timestamp": "2025-12-09T09:46:47.903964+00:00",
        "meta_object_name": "GPS BIIRM-2 (PRN 31)",
        "meta_object_id": "2006-042A",
        "meta_epoch": "2025-12-08T13:17:33.123840",
        "meta_mean_motion": 2.00554246,
        "meta_eccentricity": 0.0107364,
        "meta_inclination": 54.6936,
        "meta_ra_of_asc_node": 158.9068,
        "meta_arg_of_pericenter": 51.8598,
        "meta_mean_anomaly": 320.1374,
        "meta_ephemeris_type": 0,
        "meta_classification_type": "U",
        "meta_norad_cat_id": 29486,
        "meta_element_set_no": 999,
        "meta_rev_at_epoch": 14057,
        "meta_bstar": 0,
        "meta_mean_motion_dot": 6e-07,
        "meta_mean_motion_ddot": 0,
        "tle_line1": "1 29486U 06042A   25342.55385560  .00000060  00000+0  00000+0 0  9998",
        "tle_line2": "2 29486  54.6936 158.9068 0107364  51.8598 320.1374  2.00554246140573"
      },
      "geometry": {
        "type": "Point",
        "coordinates": [
          64.79097619683922,
          -54.59878656929117
        ]
      }
    },
    {
      "type": "Feature",
      "properties": {
        "norad_id": 29601,
        "name": "GPS BIIRM-3 (PRN 12)",
        "group": "gps-ops",
        "lat": -28.127520463291464,
        "lon": -160.46612954266857,
        "alt_km": 20308.592289378452,
        "timestamp": "2025-12-09T09:46:47.903977+00:00",
        "meta_object_name": "GPS BIIRM-3 (PRN 12)",
        "meta_object_id": "2006-052A",
        "meta_epoch": "2025-12-07T23:03:27.943776",
        "meta_mean_motion": 2.00573143,
        "meta_eccentricity": 0.00876753,
        "meta_inclination": 54.9714,
        "meta_ra_of_asc_node": 221.588,
        "meta_arg_of_pericenter": 87.3904,
        "meta_mean_anomaly": 273.6993,
        "meta_ephemeris_type": 0,
        "meta_classification_type": "U",
        "meta_norad_cat_id": 29601,
        "meta_element_set_no": 999,
        "meta_rev_at_epoch": 13957,
        "meta_bstar": 0,
        "meta_mean_motion_dot": 2.2e-07,
        "meta_mean_motion_ddot": 0,
        "tle_line1": "1 29601U 06052A   25341.96074009  .00000022  00000+0  00000+0 0  9993",
        "tle_line2": "2 29601  54.9714 221.5880 0087675  87.3904 273.6993  2.00573143139579"
      },
      "geometry": {
        "type": "Point",
        "coordinates": [
          -160.46612954266857,
          -28.127520463291464
        ]
      }
    },
    {
      "type": "Feature",
      "properties": {
        "norad_id": 32260,
        "name": "GPS BIIRM-4 (PRN 15)",
        "group": "gps-ops",
        "lat": 50.81793432874969,
        "lon": -155.28118636653363,
        "alt_km": 19769.27193241787,
        "timestamp": "2025-12-09T09:46:47.903989+00:00",
        "meta_object_name": "GPS BIIRM-4 (PRN 15)",
        "meta_object_id": "2007-047A",
        "meta_epoch": "2025-12-07T18:25:34.370688",
        "meta_mean_motion": 2.00564615,
        "meta_eccentricity": 0.01643014,
        "meta_inclination": 53.9519,
        "meta_ra_of_asc_node": 87.9639,
        "meta_arg_of_pericenter": 85.1876,
        "meta_mean_anomaly": 276.6737,
        "meta_ephemeris_type": 0,
        "meta_classification_type": "U",
        "meta_norad_cat_id": 32260,
        "meta_element_set_no": 999,
        "meta_rev_at_epoch": 13297,
        "meta_bstar": 0,
        "meta_mean_motion_dot": -1.8e-07,
        "meta_mean_motion_ddot": 0,
        "tle_line1": "1 32260U 07047A   25341.76775892 -.00000018  00000+0  00000+0 0  9995",
        "tle_line2": "2 32260  53.9519  87.9639 0164301  85.1876 276.6737  2.00564615132978"
      },
      "geometry": {
        "type": "Point",
        "coordinates": [
          -155.28118636653363,
          50.81793432874969
        ]
      }
    },
    {
      "type": "Feature",
      "properties": {
        "norad_id": 32384,
        "name": "GPS BIIRM-5 (PRN 29)",
        "group": "gps-ops",
        "lat": -42.47156114656354,
        "lon": 141.27325369013462,
        "alt_km": 20160.291376888723,
        "timestamp": "2025-12-09T09:46:47.904001+00:00",
        "meta_object_name": "GPS BIIRM-5 (PRN 29)",
        "meta_object_id": "2007-062A",
        "meta_epoch": "2025-12-08T07:46:47.506944",
        "meta_mean_motion": 2.00576984,
        "meta_eccentricity": 0.00322211,
        "meta_inclination": 55.1861,
        "meta_ra_of_asc_node": 281.823,
        "meta_arg_of_pericenter": 162.5952,
        "meta_mean_anomaly": 10.0568,
        "meta_ephemeris_type": 0,
        "meta_classification_type": "U",
        "meta_norad_cat_id": 32384,
        "meta_element_set_no": 999,
        "meta_rev_at_epoch": 13168,
        "meta_bstar": 0,
        "meta_mean_motion_dot": -4.5e-07,
        "meta_mean_motion_ddot": 0,
        "tle_line1": "1 32384U 07062A   25342.32416096 -.00000045  00000+0  00000+0 0  9990",
        "tle_line2": "2 32384  55.1861 281.8230 0032221 162.5952  10.0568  2.00576984131682"
      },
      "geometry": {
        "type": "Point",
        "coordinates": [
          141.27325369013462,
          -42.47156114656354
        ]
      }
    },
    {
      "type": "Feature",
      "properties": {
        "norad_id": 32711,
        "name": "GPS BIIRM-6 (PRN 07)",
        "group": "gps-ops",
        "lat": 18.416872702986353,
        "lon": -36.26615091416389,
        "alt_km": 20148.59002702746,
        "timestamp": "2025-12-09T09:46:47.904013+00:00",
        "meta_object_name": "GPS BIIRM-6 (PRN 07)",
        "meta_object_id": "2008-012A",
        "meta_epoch": "2025-12-08T16:26:43.187712",
        "meta_mean_motion": 2.00565395,
        "meta_eccentricity": 0.0202275,
        "meta_inclination": 54.4766,
        "meta_ra_of_asc_node": 157.5348,
        "meta_arg_of_pericenter": 244.9025,
        "meta_mean_anomaly": 112.9919,
        "meta_ephemeris_type": 0,
        "meta_classification_type": "U",
        "meta_norad_cat_id": 32711,
        "meta_element_set_no": 999,
        "meta_rev_at_epoch": 12993,
        "meta_bstar": 0,
        "meta_mean_motion_dot": 6e-07,
        "meta_mean_motion_ddot": 0,
        "tle_line1": "1 32711U 08012A   25342.68522208  .00000060  00000+0  00000+0 0  9998",
        "tle_line2": "2 32711  54.4766 157.5348 0202275 244.9025 112.9919  2.00565395129936"
      },
      "geometry": {
        "type": "Point",
        "coordinates": [
          -36.26615091416389,
          18.416872702986353
        ]
      }
    },
    {
      "type": "Feature",
      "properties": {
        "norad_id": 35752,
        "name": "GPS BIIRM-8 (PRN 05)",
        "group": "gps-ops",
        "lat": -0.019204456966098668,
        "lon": -145.0557256156479,
        "alt_km": 20201.104270821113,
        "timestamp": "2025-12-09T09:46:47.904025+00:00",
        "meta_object_name": "GPS BIIRM-8 (PRN 05)",
        "meta_object_id": "2009-043A",
        "meta_epoch": "2025-12-09T03:40:35.787072",
        "meta_mean_motion": 2.00565819,
        "meta_eccentricity": 0.0051902,
        "meta_inclination": 56.0885,
        "meta_ra_of_asc_node": 34.9246,
        "meta_arg_of_pericenter": 81.9687,
        "meta_mean_anomaly": 273.8421,
        "meta_ephemeris_type": 0,
        "meta_classification_type": "U",
        "meta_norad_cat_id": 35752,
        "meta_element_set_no": 999,
        "meta_rev_at_epoch": 11954,
        "meta_bstar": 0,
        "meta_mean_motion_dot": -8.5e-07,
        "meta_mean_motion_ddot": 0,
        "tle_line1": "1 35752U 09043A   25343.15319198 -.00000085  00000+0  00000+0 0  9994",
        "tle_line2": "2 35752  56.0885  34.9246 0051902  81.9687 273.8421  2.00565819119543"
      },
      "geometry": {
        "type": "Point",
        "coordinates": [
          -145.0557256156479,
          -0.019204456966098668
        ]
      }
    },
    {
      "type": "Feature",
      "properties": {
        "norad_id": 36585,
        "name": "GPS BIIF-1  (PRN 25)",
        "group": "gps-ops",
        "lat": -46.4859348060893,
        "lon": 167.02437942440503,
        "alt_km": 20393.03416700555,
        "timestamp": "2025-12-09T09:46:47.904038+00:00",
        "meta_object_name": "GPS BIIF-1  (PRN 25)",
        "meta_object_id": "2010-022A",
        "meta_epoch": "2025-12-09T03:49:25.990176",
        "meta_mean_motion": 2.0055298,
        "meta_eccentricity": 0.0125962,
        "meta_inclination": 54.3007,
        "meta_ra_of_asc_node": 216.2184,
        "meta_arg_of_pericenter": 65.0334,
        "meta_mean_anomaly": 53.7315,
        "meta_ephemeris_type": 0,
        "meta_classification_type": "U",
        "meta_norad_cat_id": 36585,
        "meta_element_set_no": 999,
        "meta_rev_at_epoch": 11378,
        "meta_bstar": 0,
        "meta_mean_motion_dot": 1.4e-07,
        "meta_mean_motion_ddot": 0,
        "tle_line1": "1 36585U 10022A   25343.15932859  .00000014  00000+0  00000+0 0  9994",
        "tle_line2": "2 36585  54.3007 216.2184 0125962  65.0334  53.7315  2.00552980113783"
      },
      "geometry": {
        "type": "Point",
        "coordinates": [
          167.02437942440503,
          -46.4859348060893
        ]
      }
    }
  ]
}